O3B FM10                
1 40348U 14083A   26062.81697293 -.00000028  00000+0  00000+0 0  9995
2 40348   0.0434 347.2948 0002686 353.8137  18.8747  5.00115218204623
O3B FM11                
1 40349U 14083B   26063.02958680 -.00000028  00000+0  00000+0 0  9990
2 40349   0.0566   0.5146 0003136 331.2544  28.2073  5.00115582204656
O3B FM12                
1 40350U 14083C   26062.45701119 -.00000028  00000+0  00000+0 0  9991
2 40350   0.0560 359.7796 0002643 337.6957  22.5061  5.00115945204637
O3B FM9                 
1 40351U 14083D   26063.68318304 -.00000027  00000+0  00000+0 0  9997
2 40351   0.0578   0.7445 0002735 341.4935  17.7461  5.00115939204848
ASTRA 2G                
1 40364U 14089A   26063.84970191  .00000000  00000+0  00000+0 0  9993
2 40364   0.0234   8.9636 0004441  20.6424 107.0694  1.00271112 40928
SES-9                   
1 41380U 16013A   26063.33003138 -.00000357  00000+0  00000+0 0  9999
2 41380   0.0427 307.7822 0001514  86.5529 354.8377  1.00271983 36384
SES-10                  
1 42432U 17017A   26063.34003264 -.00000284  00000+0  00000+0 0  9993
2 42432   0.0212  73.6872 0002699 276.1470 227.7463  1.00269378 32707
SES-15                  
1 42709U 17026A   26063.49419834  .00000049  00000+0  00000+0 0  9998
2 42709   0.0422 304.7457 0000720  40.1185 226.1090  1.00270841  6380
SES-11 (ECHOSTAR 105)   
1 42967U 17063A   26063.35669706 -.00000101  00000+0  00000+0 0  9995
2 42967   0.0365  70.9210 0002910 269.2101 205.4324  1.00272189 30672
SES-14                  
1 43175U 18012B   26063.34350089 -.00000290  00000+0  00000+0 0  9991
2 43175   0.0143  70.4742 0000973 272.4657 255.3040  1.00271323  5975
O3B FM15                
1 43231U 18024A   26062.95038387 -.00000028  00000+0  00000+0 0  9996
2 43231   0.0484   0.7666 0002702 337.6890  21.5262  5.00115661145769
O3B FM16                
1 43232U 18024B   26059.80451050 -.00000028  00000+0  00000+0 0  9993
2 43232   0.0446   2.3185 0002785 333.1821  24.4786  5.00115846145520
O3B FM14                
1 43233U 18024C   26063.04351249 -.00000028  00000+0  00000+0 0  9994
2 43233   0.0433   1.5385 0002846 342.0948  16.3508  5.00115627145694
O3B FM13                
1 43234U 18024D   26062.10991137 -.00000028  00000+0  00000+0 0  9997
2 43234   0.0485 331.6373 0004295 331.6147  56.6997  5.00115687145742
SES-12                  
1 43488U 18049A   26063.51775985  .00000000  00000+0  00000+0 0  9991
2 43488   0.0189 119.5295 0002064 184.8773 139.2675  1.00269264 28361
O3B FM20                
1 44112U 19020A   26061.87018883 -.00000029  00000+0  00000+0 0  9992
2 44112   0.0516 359.6601 0002817 330.2863  30.0302  5.00115471126257
O3B FM19                
1 44113U 19020B   26058.89895873 -.00000027  00000+0  00000+0 0  9991
2 44113   0.0602 347.5601 0004795 353.9797  18.4356  5.00116325125971
