[{"OBJECT_NAME":"O3B FM10","OBJECT_ID":"2014-083A","EPOCH":"2026-03-03T19:36:26.461152","MEAN_MOTION":5.00115218,"ECCENTRICITY":0.00026866,"INCLINATION":0.0434,"RA_OF_ASC_NODE":347.2948,"ARG_OF_PERICENTER":353.8137,"MEAN_ANOMALY":18.8747,"EPHEMERIS_TYPE":0,"CLASSIFICATION_TYPE":"U","NORAD_CAT_ID":40348,"ELEMENT_SET_NO":999,"REV_AT_EPOCH":20462,"BSTAR":0,"MEAN_MOTION_DOT":-2.8e-7,"MEAN_MOTION_DDOT":0},{"OBJECT_NAME":"O3B FM11","OBJECT_ID":"2014-083B","EPOCH":"2026-03-04T00:42:36.299520","MEAN_MOTION":5.00115582,"ECCENTRICITY":0.00031362,"INCLINATION":0.0566,"RA_OF_ASC_NODE":0.5146,"ARG_OF_PERICENTER":331.2544,"MEAN_ANOMALY":28.2073,"EPHEMERIS_TYPE":0,"CLASSIFICATION_TYPE":"U","NORAD_CAT_ID":40349,"ELEMENT_SET_NO":999,"REV_AT_EPOCH":20465,"BSTAR":0,"MEAN_MOTION_DOT":-2.8e-7,"MEAN_MOTION_DDOT":0},{"OBJECT_NAME":"O3B FM12","OBJECT_ID":"2014-083C","EPOCH":"2026-03-03T10:58:05.766816","MEAN_MOTION":5.00115945,"ECCENTRICITY":0.00026432,"INCLINATION":0.056,"RA_OF_ASC_NODE":359.7796,"ARG_OF_PERICENTER":337.6957,"MEAN_ANOMALY":22.5061,"EPHEMERIS_TYPE":0,"CLASSIFICATION_TYPE":"U","NORAD_CAT_ID":40350,"ELEMENT_SET_NO":999,"REV_AT_EPOCH":20463,"BSTAR":0,"MEAN_MOTION_DOT":-2.8e-7,"MEAN_MOTION_DDOT":0},{"OBJECT_NAME":"O3B FM9","OBJECT_ID":"2014-083D","EPOCH":"2026-03-04T16:23:47.014656","MEAN_MOTION":5.00115939,"ECCENTRICITY":0.0002735,"INCLINATION":0.0578,"RA_OF_ASC_NODE":0.7445,"ARG_OF_PERICENTER":341.4935,"MEAN_ANOMALY":17.7461,"EPHEMERIS_TYPE":0,"CLASSIFICATION_TYPE":"U","NORAD_CAT_ID":40351,"ELEMENT_SET_NO":999,"REV_AT_EPOCH":20484,"BSTAR":0,"MEAN_MOTION_DOT":-2.7e-7,"MEAN_MOTION_DDOT":0},{"OBJECT_NAME":"ASTRA 2G","OBJECT_ID":"2014-089A","EPOCH":"2026-03-04T20:23:34.245024","MEAN_MOTION":1.00271112,"ECCENTRICITY":0.0004441,"INCLINATION":0.0234,"RA_OF_ASC_NODE":8.9636,"ARG_OF_PERICENTER":20.6424,"MEAN_ANOMALY":107.0694,"EPHEMERIS_TYPE":0,"CLASSIFICATION_TYPE":"U","NORAD_CAT_ID":40364,"ELEMENT_SET_NO":999,"REV_AT_EPOCH":4092,"BSTAR":0,"MEAN_MOTION_DOT":0,"MEAN_MOTION_DDOT":0},{"OBJECT_NAME":"SES-9","OBJECT_ID":"2016-013A","EPOCH":"2026-03-04T07:55:14.711232","MEAN_MOTION":1.00271983,"ECCENTRICITY":0.00015147,"INCLINATION":0.0427,"RA_OF_ASC_NODE":307.7822,"ARG_OF_PERICENTER":86.5529,"MEAN_ANOMALY":354.8377,"EPHEMERIS_TYPE":0,"CLASSIFICATION_TYPE":"U","NORAD_CAT_ID":41380,"ELEMENT_SET_NO":999,"REV_AT_EPOCH":3638,"BSTAR":0,"MEAN_MOTION_DOT":-3.57e-6,"MEAN_MOTION_DDOT":0},{"OBJECT_NAME":"SES-10","OBJECT_ID":"2017-017A","EPOCH":"2026-03-04T08:09:38.820096","MEAN_MOTION":1.00269378,"ECCENTRICITY":0.00026994,"INCLINATION":0.0212,"RA_OF_ASC_NODE":73.6872,"ARG_OF_PERICENTER":276.147,"MEAN_ANOMALY":227.7463,"EPHEMERIS_TYPE":0,"CLASSIFICATION_TYPE":"U","NORAD_CAT_ID":42432,"ELEMENT_SET_NO":999,"REV_AT_EPOCH":3270,"BSTAR":0,"MEAN_MOTION_DOT":-2.84e-6,"MEAN_MOTION_DDOT":0},{"OBJECT_NAME":"SES-15","OBJECT_ID":"2017-026A","EPOCH":"2026-03-04T11:51:38.736576","MEAN_MOTION":1.00270841,"ECCENTRICITY":7.2e-5,"INCLINATION":0.0422,"RA_OF_ASC_NODE":304.7457,"ARG_OF_PERICENTER":40.1185,"MEAN_ANOMALY":226.109,"EPHEMERIS_TYPE":0,"CLASSIFICATION_TYPE":"U","NORAD_CAT_ID":42709,"ELEMENT_SET_NO":999,"REV_AT_EPOCH":638,"BSTAR":0,"MEAN_MOTION_DOT":4.9e-7,"MEAN_MOTION_DDOT":0},{"OBJECT_NAME":"SES-11 (ECHOSTAR 105)","OBJECT_ID":"2017-063A","EPOCH":"2026-03-04T08:33:38.625984","MEAN_MOTION":1.00272189,"ECCENTRICITY":0.00029104,"INCLINATION":0.0365,"RA_OF_ASC_NODE":70.921,"ARG_OF_PERICENTER":269.2101,"MEAN_ANOMALY":205.4324,"EPHEMERIS_TYPE":0,"CLASSIFICATION_TYPE":"U","NORAD_CAT_ID":42967,"ELEMENT_SET_NO":999,"REV_AT_EPOCH":3067,"BSTAR":0,"MEAN_MOTION_DOT":-1.01e-6,"MEAN_MOTION_DDOT":0},{"OBJECT_NAME":"SES-14","OBJECT_ID":"2018-012B","EPOCH":"2026-03-04T08:14:38.476896","MEAN_MOTION":1.00271323,"ECCENTRICITY":9.734e-5,"INCLINATION":0.0143,"RA_OF_ASC_NODE":70.4742,"ARG_OF_PERICENTER":272.4657,"MEAN_ANOMALY":255.304,"EPHEMERIS_TYPE":0,"CLASSIFICATION_TYPE":"U","NORAD_CAT_ID":43175,"ELEMENT_SET_NO":999,"REV_AT_EPOCH":597,"BSTAR":0,"MEAN_MOTION_DOT":-2.9e-6,"MEAN_MOTION_DDOT":0},{"OBJECT_NAME":"O3B FM15","OBJECT_ID":"2018-024A","EPOCH":"2026-03-03T22:48:33.166368","MEAN_MOTION":5.00115661,"ECCENTRICITY":0.00027028,"INCLINATION":0.0484,"RA_OF_ASC_NODE":0.7666,"ARG_OF_PERICENTER":337.689,"MEAN_ANOMALY":21.5262,"EPHEMERIS_TYPE":0,"CLASSIFICATION_TYPE":"U","NORAD_CAT_ID":43231,"ELEMENT_SET_NO":999,"REV_AT_EPOCH":14576,"BSTAR":0,"MEAN_MOTION_DOT":-2.8e-7,"MEAN_MOTION_DDOT":0},{"OBJECT_NAME":"O3B FM16","OBJECT_ID":"2018-024B","EPOCH":"2026-02-28T19:18:29.707200","MEAN_MOTION":5.00115846,"ECCENTRICITY":0.0002785,"INCLINATION":0.0446,"RA_OF_ASC_NODE":2.3185,"ARG_OF_PERICENTER":333.1821,"MEAN_ANOMALY":24.4786,"EPHEMERIS_TYPE":0,"CLASSIFICATION_TYPE":"U","NORAD_CAT_ID":43232,"ELEMENT_SET_NO":999,"REV_AT_EPOCH":14552,"BSTAR":0,"MEAN_MOTION_DOT":-2.8e-7,"MEAN_MOTION_DDOT":0},{"OBJECT_NAME":"O3B FM14","OBJECT_ID":"2018-024C","EPOCH":"2026-03-04T01:02:39.479136","MEAN_MOTION":5.00115627,"ECCENTRICITY":0.00028469,"INCLINATION":0.0433,"RA_OF_ASC_NODE":1.5385,"ARG_OF_PERICENTER":342.0948,"MEAN_ANOMALY":16.3508,"EPHEMERIS_TYPE":0,"CLASSIFICATION_TYPE":"U","NORAD_CAT_ID":43233,"ELEMENT_SET_NO":999,"REV_AT_EPOCH":14569,"BSTAR":0,"MEAN_MOTION_DOT":-2.8e-7,"MEAN_MOTION_DDOT":0},{"OBJECT_NAME":"O3B FM13","OBJECT_ID":"2018-024D","EPOCH":"2026-03-03T02:38:16.342368","MEAN_MOTION":5.00115687,"ECCENTRICITY":0.00042952,"INCLINATION":0.0485,"RA_OF_ASC_NODE":331.6373,"ARG_OF_PERICENTER":331.6147,"MEAN_ANOMALY":56.6997,"EPHEMERIS_TYPE":0,"CLASSIFICATION_TYPE":"U","NORAD_CAT_ID":43234,"ELEMENT_SET_NO":999,"REV_AT_EPOCH":14574,"BSTAR":0,"MEAN_MOTION_DOT":-2.8e-7,"MEAN_MOTION_DDOT":0},{"OBJECT_NAME":"SES-12","OBJECT_ID":"2018-049A","EPOCH":"2026-03-04T12:25:34.451040","MEAN_MOTION":1.00269264,"ECCENTRICITY":0.00020644,"INCLINATION":0.0189,"RA_OF_ASC_NODE":119.5295,"ARG_OF_PERICENTER":184.8773,"MEAN_ANOMALY":139.2675,"EPHEMERIS_TYPE":0,"CLASSIFICATION_TYPE":"U","NORAD_CAT_ID":43488,"ELEMENT_SET_NO":999,"REV_AT_EPOCH":2836,"BSTAR":0,"MEAN_MOTION_DOT":0,"MEAN_MOTION_DDOT":0},{"OBJECT_NAME":"O3B FM20","OBJECT_ID":"2019-020A","EPOCH":"2026-03-02T20:53:04.314912","MEAN_MOTION":5.00115471,"ECCENTRICITY":0.0002817,"INCLINATION":0.0516,"RA_OF_ASC_NODE":359.6601,"ARG_OF_PERICENTER":330.2863,"MEAN_ANOMALY":30.0302,"EPHEMERIS_TYPE":0,"CLASSIFICATION_TYPE":"U","NORAD_CAT_ID":44112,"ELEMENT_SET_NO":999,"REV_AT_EPOCH":12625,"BSTAR":0,"MEAN_MOTION_DOT":-2.9e-7,"MEAN_MOTION_DDOT":0},{"OBJECT_NAME":"O3B FM19","OBJECT_ID":"2019-020B","EPOCH":"2026-02-27T21:34:30.034272","MEAN_MOTION":5.00116325,"ECCENTRICITY":0.0004795,"INCLINATION":0.0602,"RA_OF_ASC_NODE":347.5601,"ARG_OF_PERICENTER":353.9797,"MEAN_ANOMALY":18.4356,"EPHEMERIS_TYPE":0,"CLASSIFICATION_TYPE":"U","NORAD_CAT_ID":44113,"ELEMENT_SET_NO":999,"REV_AT_EPOCH":12597,"BSTAR":0,"MEAN_MOTION_DOT":-2.7e-7,"MEAN_MOTION_DDOT":0}]
